STARLINK-1470           
1 45772U 20038AU  26068.60892913  .00054678  00000+0  19687-2 0  9990
2 45772  53.0480 174.6971 0002444  12.8687 347.2373 15.28074860317065
STARLINK-36101          
1 66867U 25281V   26068.18094528  .00035260  00000+0  12848-2 0  9990
2 66867  42.9984 346.6993 0000609 308.8526  51.2271 15.27578133 16094
